#aV2015  9 30  0  0  0.00000000     288 DD+AD WGS84 FIT  NGA
## 1864 259200.00000000   300.00000000 57295 0.0000000000000
+   31     1  2  3  4  5  6  7  8  9 11 12 13 14 15 16 17 18
+         19 20 21 22 23 24 25 26 27 28 29 30 31 32  0  0  0
+          0  0  0  0  0  0  0  0  0  0  0  0  0  0  0  0  0
+          0  0  0  0  0  0  0  0  0  0  0  0  0  0  0  0  0
+          0  0  0  0  0  0  0  0  0  0  0  0  0  0  0  0  0
++         2  2  2  2  2  2  2  2  2  2  2  2  2  2  2  2  2
++         2  2  2  2  2  2  2  2  2  2  2  2  2  2  0  0  0
++         0  0  0  0  0  0  0  0  0  0  0  0  0  0  0  0  0
++         0  0  0  0  0  0  0  0  0  0  0  0  0  0  0  0  0
++         0  0  0  0  0  0  0  0  0  0  0  0  0  0  0  0  0
%c cc cc ccc ccc cccc cccc cccc cccc ccccc ccccc ccccc ccccc
%c cc cc ccc ccc cccc cccc cccc cccc ccccc ccccc ccccc ccccc
%f  0.0000000  0.000000000  0.00000000000  0.000000000000000
%f  0.0000000  0.000000000  0.00000000000  0.000000000000000
%i    0    0    0    0      0      0      0      0         0
%i    0    0    0    0      0      0      0      0         0
/*      NGA, ST. LOUIS,MO.                                  
/*   EPHEMERIS COMPUTED FROM  1 DAYS OF DATA                
/*   EPOCHA SMOOTHER                                       
/* CCCCCCCCCCCCCCCCCCCCCCCCCCCCCCCCCCCCCCCCCCCCCCCCCCCCCCCCC
*  2015  9 30 17 25  0.00000000
P  1  22781.368752  13479.381176   3189.080702      1.471427                    
V  1   1862.135693   4476.653850 -31323.537991      0.007336                    
P  2  -8289.351544 -19692.578683  16429.813064    591.013673                    
V  2  17801.848928   9384.807522  20284.636519      0.014579                    
P  3  13441.184378  10385.831995  20419.228740     21.141828                    
V  3  -3274.427603  25733.764038 -10960.338034     -0.003984                    
P  4  18736.994946  18091.829573  -6208.883136    -26.584042                    
V  4  -7844.800156  -1610.693407 -29812.982863     -0.045234                    
P  5  -2880.421624 -25425.362039  -6793.372578   -189.959749                    
V  5   3918.904636  -8326.713768  29956.596883      0.040219                    
P  6   4346.046835 -15131.813812  21388.234122     68.035419                    
V  6  22567.637248  15120.876436   6103.417791      0.071810                    
P  7  21222.467291   2050.302474 -15958.357350    483.839259                    
V  7  15418.749920  13326.119911  21662.108654     -0.007648                    
P  8  13590.778474   9573.911649 -20666.370810     -7.106437                    
V  8 -23453.543475  12038.084201  -9838.537766     -0.012942                    
P  9  24896.619339  -7098.144743   5969.256725     -6.345113                    
V  9  -5652.786944   5800.536320  30428.498775      0.027472                    
P 11  23507.946095  11200.738630  -6005.452519   -607.390402                    
V 11  -7948.787566   2590.275795 -28867.854009     -0.023712                    
P 12 -11164.110213 -13786.563819  19732.007695    332.775635                    
V 12   4189.358343 -24803.489521 -14676.141921      0.033603                    
P 13  -2739.839507 -14864.901794 -21977.733468   -153.178638                    
V 13  26154.572724  -8636.560751   2491.101058     -0.029195                    
P 14 -19761.359087  14751.974218   9911.876206     31.157611                    
V 14 -12339.766356   2029.638794 -28496.921665     -0.026082                    
P 15 -15294.909981  -8738.681851 -20062.536139   -274.381830                    
V 15  21807.299140 -12833.490738 -10757.043809     -0.020222                    
P 16    545.583975  25477.716126  -6842.225323    -81.200718                    
V 16  -3361.538420   8221.437744  31063.441411      0.038836                    
P 17  18922.219388 -15471.074850  10426.055013   -189.472446                    
V 17  12721.895299  -2849.567676 -28342.482105     -0.012160                    
P 18 -14961.454642   9887.727430 -18998.976633    438.601461                    
V 18   -275.839867 -25497.858444 -12998.634841      0.035053                    
P 19  22198.310895   2904.366652 -14871.139505   -520.873941                    
V 19 -16722.898123   7530.859323 -23425.533569     -0.005610                    
P 20 -13674.061498 -13558.704318 -18415.180802    359.461358                    
V 20   2230.595385 -23195.195632  15630.880498      0.030239                    
P 21 -19870.562560   1764.251653 -16980.281060   -483.475191                    
V 21 -17812.000050 -14578.290108  18239.567653     -0.026870                    
P 22  -9701.448286  21960.973989 -10929.154162    396.409152                    
V 22  -2680.001164 -14576.770198 -26517.761058      0.035695                    
P 23  20700.786360   3616.822610  16665.002046   -136.212250                    
V 23 -18055.204848  10300.474195  19964.117517     -0.021612                    
P 24 -22224.049103 -14699.478569    341.663179     -5.562319                    
V 24   1268.672087  -2724.636636 -31446.690964     -0.005866                    
P 25 -14853.308766    838.306284  21892.861606    -45.930299                    
V 25   2216.102217 -27910.878623   2720.672395     -0.053011                    
P 26  -4887.081179  25812.583160   3876.787164    -68.802883                    
V 26  -2360.243567  -5141.999396  31254.310427     -0.121537                    
P 27    880.065773  15798.316230 -21341.291723     23.814928                    
V 27 -24728.749379  10934.602252   7203.062553      0.030155                    
P 28  11994.502439 -19063.519218 -13385.143420    471.188273                    
V 28  -1155.799952  18082.264228 -25686.725957      0.025669                    
P 29 -24911.164163   3940.618120   8279.858148    637.131549                    
V 29   8903.464387  -5983.840342  29714.827514      0.020374                    
P 30  14029.391713  -7883.080039 -21142.846021     33.418758                    
V 30  20413.647807  17459.303787   6953.662321      0.063818                    
P 31  -4191.047832  15137.850397  21494.357372    300.944480                    
V 31 -21986.770358 -15703.836961   7144.600027     -0.013966                    
P 32   6356.101531  22005.399419  13842.363241    -28.103018                    
V 32  -5035.553059  16876.805233 -23892.234804      0.112232                    
EOF
